STARLINK-1469_new
1 15752C 20038Y   21326.13501122  .01215355  00000-0  92074-2 0  3265
2 15752  53.0464 212.9221 0001402  58.3764  78.7939 15.70500074    19
STARLINK-1469_old
1 25752C 20038Y   21325.17690032  .01259331  00000-0  10445-1 0  3259
2 25752  53.0465 217.6548 0001569 338.1017 142.3854 15.68291217    15
